[Satellite]
VERSION=1.1
NAME=ORBCOMM FM13 [+]
NICKNAME=ORBCOMM FM13 [+]
TLE1=1 25420U 98046H   15055.04918809  .00000971  00000-0  41299-3 0  9990
TLE2=2 25420  44.9977 266.7358 0002626 203.8415 318.2581 14.31678103864034
